{
  "type": "FeatureCollection",
  "features": [
    {
      "type": "Feature",
      "properties": {
        "norad_id": 37486,
        "name": "COSMOS 2251 DEB",
        "group": "cosmos-2251-debris",
        "lat": -66.26937447906322,
        "lon": -11.717090836549762,
        "alt_km": 889.6239852010322,
        "timestamp": "2025-12-06T03:35:02.283891+00:00",
        "meta_object_name": "COSMOS 2251 DEB",
        "meta_object_id": "1993-036BLP",
        "meta_epoch": "2025-12-02T16:54:10.956672",
        "meta_mean_motion": 14.13188429,
        "meta_eccentricity": 0.0228993,
        "meta_inclination": 73.688,
        "meta_ra_of_asc_node": 132.7403,
        "meta_arg_of_pericenter": 2.4987,
        "meta_mean_anomaly": 12.5088,
        "meta_ephemeris_type": 0,
        "meta_classification_type": "U",
        "meta_norad_cat_id": 37486,
        "meta_element_set_no": 999,
        "meta_rev_at_epoch": 63228,
        "meta_bstar": 0.0021348416,
        "meta_mean_motion_dot": 5.104e-05,
        "meta_mean_motion_ddot": 0,
        "tle_line1": "1 37486U 93036BLP 25336.70429348  .00005104  00000+0  21348-2 0  9994",
        "tle_line2": "2 37486  73.6880 132.7403 0228993   2.4987  12.5088 14.13188429632281"
      },
      "geometry": {
        "type": "Point",
        "coordinates": [
          -11.717090836549762,
          -66.26937447906322
        ]
      }
    },
    {
      "type": "Feature",
      "properties": {
        "norad_id": 37487,
        "name": "COSMOS 2251 DEB",
        "group": "cosmos-2251-debris",
        "lat": -7.823191778084656,
        "lon": 27.465549482428635,
        "alt_km": 645.1935552175637,
        "timestamp": "2025-12-06T03:35:02.283902+00:00",
        "meta_object_name": "COSMOS 2251 DEB",
        "meta_object_id": "1993-036BLQ",
        "meta_epoch": "2025-12-03T22:50:37.663584",
        "meta_mean_motion": 14.80409078,
        "meta_eccentricity": 0.0025242,
        "meta_inclination": 73.9029,
        "meta_ra_of_asc_node": 209.5569,
        "meta_arg_of_pericenter": 49.3144,
        "meta_mean_anomaly": 311.022,
        "meta_ephemeris_type": 0,
        "meta_classification_type": "U",
        "meta_norad_cat_id": 37487,
        "meta_element_set_no": 999,
        "meta_rev_at_epoch": 81115,
        "meta_bstar": 0.0061344,
        "meta_mean_motion_dot": 0.00047415,
        "meta_mean_motion_ddot": 0,
        "tle_line1": "1 37487U 93036BLQ 25337.95182481  .00047415  00000+0  61344-2 0  9998",
        "tle_line2": "2 37487  73.9029 209.5569 0025242  49.3144 311.0220 14.80409078811153"
      },
      "geometry": {
        "type": "Point",
        "coordinates": [
          27.465549482428635,
          -7.823191778084656
        ]
      }
    },
    {
      "type": "Feature",
      "properties": {
        "norad_id": 37491,
        "name": "COSMOS 2251 DEB",
        "group": "cosmos-2251-debris",
        "lat": -64.85088143313106,
        "lon": -112.80450427884323,
        "alt_km": 757.0815323283532,
        "timestamp": "2025-12-06T03:35:02.283912+00:00",
        "meta_object_name": "COSMOS 2251 DEB",
        "meta_object_id": "1993-036BLU",
        "meta_epoch": "2025-12-03T14:48:31.500000",
        "meta_mean_motion": 13.75236476,
        "meta_eccentricity": 0.03180692,
        "meta_inclination": 73.9058,
        "meta_ra_of_asc_node": 289.3863,
        "meta_arg_of_pericenter": 284.0782,
        "meta_mean_anomaly": 72.518,
        "meta_ephemeris_type": 0,
        "meta_classification_type": "U",
        "meta_norad_cat_id": 37491,
        "meta_element_set_no": 999,
        "meta_rev_at_epoch": 55621,
        "meta_bstar": 0.0021635807,
        "meta_mean_motion_dot": 2.973e-05,
        "meta_mean_motion_ddot": 0,
        "tle_line1": "1 37491U 93036BLU 25337.61703125  .00002973  00000+0  21636-2 0  9990",
        "tle_line2": "2 37491  73.9058 289.3863 0318069 284.0782  72.5180 13.75236476556211"
      },
      "geometry": {
        "type": "Point",
        "coordinates": [
          -112.80450427884323,
          -64.85088143313106
        ]
      }
    },
    {
      "type": "Feature",
      "properties": {
        "norad_id": 37498,
        "name": "COSMOS 2251 DEB",
        "group": "cosmos-2251-debris",
        "lat": -66.58232214176641,
        "lon": 57.724003477318895,
        "alt_km": 707.6776069968118,
        "timestamp": "2025-12-06T03:35:02.283923+00:00",
        "meta_object_name": "COSMOS 2251 DEB",
        "meta_object_id": "1993-036BMB",
        "meta_epoch": "2025-12-02T07:38:53.705760",
        "meta_mean_motion": 14.54689112,
        "meta_eccentricity": 0.00134342,
        "meta_inclination": 74.038,
        "meta_ra_of_asc_node": 203.6034,
        "meta_arg_of_pericenter": 264.7495,
        "meta_mean_anomaly": 95.2135,
        "meta_ephemeris_type": 0,
        "meta_classification_type": "U",
        "meta_norad_cat_id": 37498,
        "meta_element_set_no": 999,
        "meta_rev_at_epoch": 65203,
        "meta_bstar": 0.00080152077,
        "meta_mean_motion_dot": 3.406e-05,
        "meta_mean_motion_ddot": 0,
        "tle_line1": "1 37498U 93036BMB 25336.31867715  .00003406  00000+0  80152-3 0  9990",
        "tle_line2": "2 37498  74.0380 203.6034 0013434 264.7495  95.2135 14.54689112652037"
      },
      "geometry": {
        "type": "Point",
        "coordinates": [
          57.724003477318895,
          -66.58232214176641
        ]
      }
    },
    {
      "type": "Feature",
      "properties": {
        "norad_id": 37499,
        "name": "COSMOS 2251 DEB",
        "group": "cosmos-2251-debris",
        "lat": -46.26671846251677,
        "lon": 171.66400335844912,
        "alt_km": 802.757146063891,
        "timestamp": "2025-12-06T03:35:02.283934+00:00",
        "meta_object_name": "COSMOS 2251 DEB",
        "meta_object_id": "1993-036BMC",
        "meta_epoch": "2025-12-05T06:26:07.747872",
        "meta_mean_motion": 14.34331053,
        "meta_eccentricity": 0.00266878,
        "meta_inclination": 74.0375,
        "meta_ra_of_asc_node": 335.869,
        "meta_arg_of_pericenter": 54.1527,
        "meta_mean_anomaly": 306.2098,
        "meta_ephemeris_type": 0,
        "meta_classification_type": "U",
        "meta_norad_cat_id": 37499,
        "meta_element_set_no": 999,
        "meta_rev_at_epoch": 85042,
        "meta_bstar": 0.00027954752,
        "meta_mean_motion_dot": 7.63e-06,
        "meta_mean_motion_ddot": 0,
        "tle_line1": "1 37499U 93036BMC 25339.26814523  .00000763  00000+0  27955-3 0  9992",
        "tle_line2": "2 37499  74.0375 335.8690 0026687  54.1527 306.2098 14.34331053850421"
      },
      "geometry": {
        "type": "Point",
        "coordinates": [
          171.66400335844912,
          -46.26671846251677
        ]
      }
    },
    {
      "type": "Feature",
      "properties": {
        "norad_id": 37528,
        "name": "COSMOS 2251 DEB",
        "group": "cosmos-2251-debris",
        "lat": 1.150111132603403,
        "lon": 134.85186855555853,
        "alt_km": 723.533385466938,
        "timestamp": "2025-12-06T03:35:02.283944+00:00",
        "meta_object_name": "COSMOS 2251 DEB",
        "meta_object_id": "1993-036BNH",
        "meta_epoch": "2025-12-03T17:38:33.606816",
        "meta_mean_motion": 14.50464938,
        "meta_eccentricity": 0.00209786,
        "meta_inclination": 74.0361,
        "meta_ra_of_asc_node": 139.0576,
        "meta_arg_of_pericenter": 288.0784,
        "meta_mean_anomaly": 71.8091,
        "meta_ephemeris_type": 0,
        "meta_classification_type": "U",
        "meta_norad_cat_id": 37528,
        "meta_element_set_no": 999,
        "meta_rev_at_epoch": 85800,
        "meta_bstar": 0.00065341092,
        "meta_mean_motion_dot": 2.535e-05,
        "meta_mean_motion_ddot": 0,
        "tle_line1": "1 37528U 93036BNH 25337.73511119  .00002535  00000+0  65341-3 0  9990",
        "tle_line2": "2 37528  74.0361 139.0576 0020978 288.0784  71.8091 14.50464938858003"
      },
      "geometry": {
        "type": "Point",
        "coordinates": [
          134.85186855555853,
          1.150111132603403
        ]
      }
    },
    {
      "type": "Feature",
      "properties": {
        "norad_id": 37530,
        "name": "COSMOS 2251 DEB",
        "group": "cosmos-2251-debris",
        "lat": -65.39829185968188,
        "lon": -52.97988819225552,
        "alt_km": 793.1557311779861,
        "timestamp": "2025-12-06T03:35:02.283954+00:00",
        "meta_object_name": "COSMOS 2251 DEB",
        "meta_object_id": "1993-036BNK",
        "meta_epoch": "2025-11-30T19:50:14.646624",
        "meta_mean_motion": 14.34478642,
        "meta_eccentricity": 0.00255427,
        "meta_inclination": 74.0356,
        "meta_ra_of_asc_node": 355.4602,
        "meta_arg_of_pericenter": 61.4891,
        "meta_mean_anomaly": 111.2815,
        "meta_ephemeris_type": 0,
        "meta_classification_type": "U",
        "meta_norad_cat_id": 37530,
        "meta_element_set_no": 999,
        "meta_rev_at_epoch": 85061,
        "meta_bstar": 0.00021143929,
        "meta_mean_motion_dot": 5.72e-06,
        "meta_mean_motion_ddot": 0,
        "tle_line1": "1 37530U 93036BNK 25334.82655841  .00000572  00000+0  21144-3 0  9993",
        "tle_line2": "2 37530  74.0356 355.4602 0025542  61.4891 111.2815 14.34478642850619"
      },
      "geometry": {
        "type": "Point",
        "coordinates": [
          -52.97988819225552,
          -65.39829185968188
        ]
      }
    }
  ]
}